{
  "norad_id": 65955,
  "name": "KUIPER-00126",
  "history": [
    {
      "epoch": "2026-03-28T21:47:00.118464Z",
      "apogee_km": 630.243759863125,
      "perigee_km": 629.1070926875836,
      "latitude_deg": 3.580634791028289e-05,
      "longitude_deg": 122.54858733325653,
      "height_km": 630.4883890965523,
      "semi_major_axis_km": 7007.812426275354,
      "eccentricity": 8.11e-05,
      "inclination_deg": 51.8982,
      "raan_deg": 275.6204,
      "arg_perigee_deg": 96.8158,
      "mean_anomaly_deg": 263.2897,
      "mean_motion_rev_day": 14.79888716
    }
  ]
}