{"fetched_at":"2026-03-29T16:36:15Z","count":15609,"tles":[{"name":"KUIPER-00126","line1":"1 65955U 25228J   26087.90764026  .00002273  00000+0  32744-3 0  9992","line2":"2 65955  51.8982 275.6204 0000811  96.8158 263.2897 14.79888716 26079","category":"Other"}]}